STARLETTE               
1 07646U 75010A   22358.24385618 -.00000147  00000+0 -36340-5 0  9997
2 07646  49.8248  81.1077 0205758 184.5123 175.3917 13.82315258418717
LAGEOS 1                
1 08820U 76039A   22357.54876744  .00000003  00000+0  00000+0 0  9998
2 08820 109.8478 103.7805 0045133 214.7998 132.4240  6.38664952831925
AJISAI (EGS)            
1 16908U 86061A   22358.58265709 -.00000107  00000+0 -69082-4 0  9995
2 16908  50.0096  94.4141 0011421 185.4819 205.1503 12.44498295322522
COSMOS 1989 (ETALON 1)  
1 19751U 89001C   22357.80500688  .00000017  00000+0  00000+0 0  9991
2 19751  64.3550 115.8710 0023954 213.8300 102.6391  2.13156093264331
COSMOS 2024 (ETALON 2)  
1 20026U 89039C   22357.61721993 -.00000040  00000+0  00000+0 0  9999
2 20026  65.5125 353.9707 0018661 218.7680 255.0058  2.13204175261395
LAGEOS 2                
1 22195U 92070B   22357.32842205 -.00000009  00000+0  00000+0 0  9990
2 22195  52.6770 350.4443 0138299 351.3550  23.6608  6.47293473713084
STELLA                  
1 22824U 93061B   22358.23093050 -.00000019  00000+0  11071-4 0  9993
2 22824  98.9494  23.8120 0005876 335.0525 123.6434 14.27396229523613
LARES                   
1 38077U 12006A   22357.56209722 -.00000057  00000+0 -11121-3 0  9998
2 38077  69.4962 304.2905 0009079 178.5896 181.5153 12.54931176497637
